1  4259U 69082D   20341.47644575 -.00000018  00000-0  25872-4 0  9995
2  4259  70.0139 120.2138 0023610 258.1241 158.7508 13.94760480700771
1  4259U 69082D   20341.56138767 -.00000018 +00000-0 +25567-4 0  9997
2  4259 070.0139 120.0327 0023611 258.0289 225.2406 13.94760473700365
1 04259U 69082D   20341.68246163 -.00000014  00000-0  28636-4 0  9996
2 04259  70.0139 119.7746 0023612 257.8879 113.1530 13.94760484700385
1  4259U 69082D   20341.68246163 -.00000014 +00000-0 +28636-4 0  9996
2  4259 070.0139 119.7746 0023612 257.8879 113.1530 13.94760484700802
1 04259U 69082D   20342.26855551 -.00000012  00000-0  30453-4 0  9996
2 04259  70.0140 118.5251 0023609 257.2243 175.9125 13.94760543700461
1  4259U 69082D   20342.56562613 -.00000020 +00000-0 +24296-4 0  9990
2  4259 070.0141 117.8918 0023602 256.8714 227.5117 13.94760550700503
1  4259U 69082D   20342.68661564 -.00000018  00000-0  25747-4 0  9997
2  4259  70.0141 117.6339 0023604 256.7378 114.9928 13.94760552700944
1  4259U 69082D   20343.20048819 -.00000023 +00000-0 +22011-4 0  9995
2  4259 070.0142 116.5384 0023598 256.1627 175.1247 13.94760597700599
1 04259U 69082D   20343.64274557 -.00000027  00000-0  19471-4 0  9993
2 04259  70.0143 115.5956 0023597 255.6550 235.6926 13.94760626700658
1  4259U 69082D   20344.48950177 -.00000031  00000-0  16096-4 0  9990
2  4259  70.0145 113.7905 0023590 254.6932 167.2331 13.94760701701194
1 04259U 69082D   20344.78545097 -.00000025  00000-0  20477-4 0  9995
2 04259  70.0145 113.1595 0023587 254.3564 213.1867 13.94760733700815
1 04259U 69082D   20345.20845861 -.00000023  00000-0  22179-4 0  9994
2 04259  70.0146 112.2578 0023575 253.8705 177.1023 13.94760773700878
1  4259U 69082D   20345.56788115 -.00000025 +00000-0 +20526-4 0  9997
2  4259 070.0147 111.4915 0023573 253.4540 181.7616 13.94760784700923
1 04259U 69082D   20345.78967552 -.00000024  00000-0  21732-4 0  9994
2 04259  70.0147 111.0187 0023569 253.2076 215.3796 13.94760792700952
1  4259U 69082D   20345.78967552 -.00000024  00000-0  21732-4 0  9994
2  4259  70.0147 111.0187 0023569 253.2076 215.3796 13.94760792701379
1 04259U 69082D   20346.06481925 -.00000026  00000-0  19588-4 0  9999
2 04259  70.0148 110.4322 0023563 252.8968 156.8674 13.94760802700996
1  4259U 69082D   20346.63087973 -.00000032 +00000-0 +15514-4 0  9999
2  4259 070.0148 109.2254 0023556 252.2270 119.0689 13.94760790701071
1 04259U 69082D   20346.79405885 -.00000029  00000-0  17643-4 0  9993
2 04259  70.0149 108.8776 0023550 252.0379 218.3908 13.94760817701097
1  4259U 69082D   20346.79405885 -.00000029  00000-0  17643-4 0  9993
2  4259  70.0149 108.8776 0023550 252.0379 218.3908 13.94760817701514
1 04259U 69082D   20347.09345012 -.00000034  00000-0  13727-4 0  9997
2 04259  70.0149 108.2393 0023542 251.6968 281.6276 13.94760819701134
1 04259U 69082D   20347.79844219 -.00000037  00000-0  11572-4 0  9996
2 04259  70.0150 106.7364 0023524 250.8658 221.4047 13.94760858701236
1  4259U 69082D   20347.79844219 -.00000037  00000-0  11572-4 0  9996
2  4259  70.0150 106.7364 0023524 250.8658 221.4047 13.94760858701652
1 04259U 69082D   20348.09748574 -.00000043  00000-0  75486-5 0  9999
2 04259  70.0150 106.0990 0023517 250.5261 282.8948 13.94760865701276
1  4259U 69082D   20348.80231149 -.00000049  00000-0  30997-5 0  9997
2  4259  70.0151 104.5964 0023505 249.7152 221.8170 13.94760887701798
1 04259U 69082D   20348.87931049 -.00000051  00000-0  16838-5 0  9991
2 04259  70.0151 104.4323 0023504 249.6301 248.4245 13.94760889701385
1 04259U 69082D   20349.58563262 -.00000054  00000-0 -62731-6 0  9996
2 04259  70.0152 102.9265 0023493 248.8051 194.8725 13.94760906701482
1  4259U 69082D   20350.10539490 -.00000052  00000-0  73718-6 0  9996
2  4259  70.0152 101.8185 0023479 248.2083 284.5915 13.94760918701979
1 04259U 69082D   20350.59015586 -.00000049  00000-0  31475-5 0  9993
2 04259  70.0153 100.7851 0023474 247.6390 198.5822 13.94760917701629
1 04259U 69082D   20350.73800448 -.00000045  00000-0  55623-5 0  9995
2 04259  70.0153 100.4700 0023471 247.4707 220.9265 13.94760923701646
1  4259U 69082D   20351.52044265 -.00000035  00000-0  13554-4 0  9995
2  4259  70.0154  98.8020 0023450 246.5539 189.5559 13.94760942702178
1 04259U 69082D   20351.59439097 -.00000031  00000-0  15936-4 0  9995
2 04259  70.0154  98.6444 0023448 246.4676 200.8507 13.94760947701763
1 04259U 69082D   20351.74186352 -.00000030  00000-0  17198-4 0  9996
2 04259  70.0154  98.3300 0023443 246.2977 221.3088 13.94760946701781
1  4259U 69082D   20352.52470602 -.00000019  00000-0  25490-4 0  9998
2  4259  70.0155  96.6611 0023430 245.3893 191.9599 13.94761000702312
1 04259U 69082D   20352.59867007 -.00000017  00000-0  26782-4 0  9997
2 04259  70.0155  96.5035 0023433 245.3201 203.3166 13.94760999701905
1 04259U 69082D   20352.74650497 -.00000015  00000-0  28182-4 0  9991
2 04259  70.0155  96.1883 0023429 245.1521 225.5919 13.94761014701923
1 04259U 69082D   20353.22850654 -.00000013  00000-0  29278-4 0  9997
2 04259  70.0156  95.1608 0023422 244.6105 125.7035 13.94761050701990
1  4259U 69082D   20353.52916442 -.00000017  00000-0  26638-4 0  9999
2  4259  70.0156  94.5199 0023411 244.2435 195.3246 13.94761043702459
1 04259U 69082D   20353.75056733 -.00000017  00000-0  26911-4 0  9996
2 04259  70.0156  94.0479 0023404 243.9921 226.9828 13.94761060702066
1 04259U 69082D   20354.60805064 -.00000024  00000-0  21318-4 0  9994
2 04259  70.0158  92.2201 0023385 243.0033 212.3997 13.94761098702184
1  4259U 69082D   20354.60805064 -.00000024  00000-0  21318-4 0  9994
2  4259  70.0158  92.2201 0023385 243.0033 212.3997 13.94761098702601
1 04259U 69082D   20354.68155433 -.00000025  00000-0  20870-4 0  9993
2 04259  70.0158  92.0634 0023383 242.9210 221.4586 13.94761102702197
1 04259U 69082D   20355.53886002 -.00000032  00000-0  15411-4 0  9994
2 04259  70.0158  90.2358 0023364 241.9354 205.9807 13.94761132702317
1 04259U 69082D   20355.68587483 -.00000031  00000-0  16123-4 0  9991
2 04259  70.0158  89.9224 0023359 241.7679 224.1387 13.94761143702336
1  4259U 69082D   20355.68587483 -.00000031  00000-0  16123-4 0  9991
2  4259  70.0158  89.9224 0023359 241.7679 224.1387 13.94761143702752
1 04259U 69082D   20356.61728501 -.00000033  00000-0  15101-4 0  9990
2 04259  70.0159  87.9369 0023338 240.6966 220.7391 13.94761167702466
1 04259U 69082D   20356.69035008 -.00000030  00000-0  16740-4 0  9998
2 04259  70.0159  87.7812 0023334 240.6130 227.5975 13.94761183702478
1  4259U 69082D   20356.69035008 -.00000030  00000-0  16740-4 0  9998
2  4259  70.0159  87.7812 0023334 240.6130 227.5975 13.94761183702894
1 04259U 69082D   20357.47279285 -.00000027  00000-0  18831-4 0  9991
2 04259  70.0160  86.1133 0023311 239.7109 196.2365 13.94761235702584
1  4259U 69082D   20357.69440729 -.00000024  00000-0  21191-4 0  9998
2  4259  70.0160  85.6408 0023302 239.4537 228.9625 13.94761251703036
1 04259U 69082D   20358.62562388 -.00000025  00000-0  20803-4 0  9998
2 04259  70.0160  83.6558 0023269 238.3590 224.6151 13.94761311702740
1  4259U 69082D   20358.69876865 -.00000025  00000-0  20864-4 0  9990
2  4259  70.0160  83.4998 0023265 238.2719 231.8773 13.94761324703176
1 04259U 69082D   20359.70322247 -.00000034  00000-0  13626-4 0  9991
2 04259  70.0160  81.3586 0023235 237.1127 235.2339 13.94761378702897
1  4259U 69082D   20359.70322247 -.00000034  00000-0  13626-4 0  9991
2  4259  70.0160  81.3586 0023235 237.1127 235.2339 13.94761378703315
1 04259U 69082D   20360.56049848 -.00000039  00000-0  10469-4 0  9997
2 04259  70.0160  79.5311 0023204 236.0985 219.6368 13.94761439703019
1 04259U 69082D   20360.78418780 -.00000044  00000-0  61893-5 0  9990
2 04259  70.0160  79.0543 0023203 235.8761 262.7435 13.94761419703044
1  4259U 69082D   20360.78418780 -.00000044  00000-0  61893-5 0  9990
2  4259  70.0160  79.0543 0023203 235.8761 262.7435 13.94761419703460
1 04259U 69082D   20361.56457025 -.00000044  00000-0  63331-5 0  9991
2 04259  70.0161  77.3907 0023180 234.9700 221.0443 13.94761423703151
1 04259U 69082D   20361.93864019 -.00000044  00000-0  65880-5 0  9998
2 04259  70.0160  76.5932 0023165 234.5404 299.2449 13.94761427703202
1  4259U 69082D   20362.01033041 -.00000042  00000-0  80535-5 0  9993
2  4259  70.0160  76.4404 0023162 234.4536 299.2051 13.94761431703638
1 04259U 69082D   20362.56882959 -.00000032  00000-0  15539-4 0  9993
2 04259  70.0160  75.2498 0023143 233.7972 223.4378 13.94761459703296
1 04259U 69082D   20363.27790251 -.00000024  00000-0  21629-4 0  9993
2 04259  70.0160  73.7383 0023115 232.9701 183.6973 13.94761506703394
1  4259U 69082D   20363.48392693 -.00000019  00000-0  25319-4 0  9998
2  4259  70.0160  73.2990 0023110 232.7246 138.1523 13.94761507703847
1 04259U 69082D   20363.94663632 -.00000016  00000-0  27210-4 0  9992
2 04259  70.0160  72.3126 0023090 232.1939 301.4101 13.94761530703481
1  4259U 69082D   20364.48797013 -.00000014  00000-0  29088-4 0  9996
2  4259  70.0159  71.1586 0023073 231.5508 139.4624 13.94761555703983
1 04259U 69082D   20364.57731843 -.00000015  00000-0  28295-4 0  9995
2 04259  70.0159  70.9682 0023069 231.4526 228.0747 13.94761550703572
1 04259U 69082D   20364.95061208 -.00000017  00000-0  26506-4 0  9993
2 04259  70.0159  70.1724 0023052 231.0102 302.3917 13.94761574703626
1 04259U 69082D   20365.49177060 -.00000017  00000-0  26809-4 0  9993
2 04259  70.0159  69.0187 0023038 230.3819 139.5498 13.94761619703700
1  4259U 69082D   20365.49177060 -.00000017  00000-0  26809-4 0  9993
2  4259  70.0159  69.0187 0023038 230.3819 139.5498 13.94761619704127
1 04259U 69082D   20366.59912198 -.00000034  00000-0  14126-4 0  9992
2 04259  70.0158  66.6580 0022997 229.1579 299.5014 13.94761624703854
1  4259U 69082D   20366.59912198 -.00000034  00000-0  14126-4 0  9992
2  4259  70.0158  66.6580 0022997 229.1579 299.5014 13.94761624704271
1 04259U 69082D   21001.07690434 -.00000038  00000-0  11321-4 0  9996
2 04259  70.0158  65.6395 0022976 228.5860 178.4646 13.94761629703929
